STARLINK-35946          
1 66522U 25265G   25345.16668980  .00020716  00000+0  35828-3 0  9998
2 66522  42.9998  63.1912 0001639 263.0311  93.8824 15.50557473  4742
STARLINK-35969          
1 66523U 25265H   25345.16668980  .00090111  00000+0  15277-2 0  9990
2 66523  42.9999  63.1862 0004243 281.4309  77.4665 15.50507193  4748
STARLINK-35687          
1 66524U 25265J   25345.16668980 -.02062654  00000+0 -41748-1 0  9997
2 66524  42.9998  63.1836 0001716 263.3159  96.4511 15.49031222  4747
STARLINK-35975          
1 66525U 25265K   25345.16668980 -.00079731  00000+0 -13656-2 0  9998
2 66525  42.9999  63.1772 0001535 263.1339  99.5180 15.50608831  4749
STARLINK-35932          
1 66526U 25265L   25345.16668980 -.00059694  00000+0 -10188-2 0  9992
2 66526  43.0000  63.1725 0001600 261.4030 103.1660 15.50596127  4632
STARLINK-35935          
1 66527U 25265M   25345.16668980  .00003393  00000+0  63658-4 0  9998
2 66527  43.0000  63.1676 0001549 258.0443 108.4469 15.50569310  4741
STARLINK-35928          
1 66528U 25265N   25345.16668980 -.00119270  00000+0 -20548-2 0  9992
2 66528  43.0002  63.1636 0001583 264.5647 103.8341 15.50626579  4745
STARLINK-35933          
1 66529U 25265P   25345.16668980 -.02082830  00000+0 -41657-1 0  9999
2 66529  42.9998  63.1587 0001796 268.3485 101.4033 15.49399693  4745
STARLINK-35961          
1 66530U 25265Q   25345.16668980 -.00186906  00000+0 -32488-2 0  9991
2 66530  43.0000  63.1528 0001683 268.1518 104.0705 15.50645644  4745
STARLINK-35960          
1 66531U 25265R   25345.16668980  .00034670  00000+0  59471-3 0  9992
2 66531  43.0000  63.1477 0001576 259.8949 114.2689 15.50553642  4745
STARLINK-35914          
1 66532U 25265S   25345.16668980  .00004306  00000+0  79213-4 0  9993
2 66532  42.9998  63.1435 0001578 260.7201 115.3567 15.50566497  4747
STARLINK-35707          
1 66533U 25265T   25345.16668980 -.00066601  00000+0 -11384-2 0  9995
2 66533  42.9999  63.1383 0001560 262.0083 115.9814 15.50597118  4740
