CCSDS_OMM_VERS = 2.0
CREATION_DATE  = 
ORIGINATOR     = 

OBJECT_NAME    = STARLINK-35946
OBJECT_ID      = 2025-265G
CENTER_NAME    = EARTH
REF_FRAME      = TEME
TIME_SYSTEM    = UTC
MEAN_ELEMENT_THEORY = SGP/SGP4

EPOCH          = 2025-12-11T04:00:01.998720
MEAN_MOTION    = 15.50557473
ECCENTRICITY   = .0001639
INCLINATION    = 42.9998
RA_OF_ASC_NODE = 63.1912
ARG_OF_PERICENTER = 263.0311
MEAN_ANOMALY   = 93.8824

EPHEMERIS_TYPE = 0
CLASSIFICATION_TYPE = U
NORAD_CAT_ID   = 66522
ELEMENT_SET_NO = 999
REV_AT_EPOCH   = 474
BSTAR          = .35828E-3
MEAN_MOTION_DOT = .20716E-3
MEAN_MOTION_DDOT = 0

CCSDS_OMM_VERS = 2.0
CREATION_DATE  = 
ORIGINATOR     = 

OBJECT_NAME    = STARLINK-35969
OBJECT_ID      = 2025-265H
CENTER_NAME    = EARTH
REF_FRAME      = TEME
TIME_SYSTEM    = UTC
MEAN_ELEMENT_THEORY = SGP/SGP4

EPOCH          = 2025-12-11T04:00:01.998720
MEAN_MOTION    = 15.50507193
ECCENTRICITY   = .0004243
INCLINATION    = 42.9999
RA_OF_ASC_NODE = 63.1862
ARG_OF_PERICENTER = 281.4309
MEAN_ANOMALY   = 77.4665

EPHEMERIS_TYPE = 0
CLASSIFICATION_TYPE = U
NORAD_CAT_ID   = 66523
ELEMENT_SET_NO = 999
REV_AT_EPOCH   = 474
BSTAR          = .15277E-2
MEAN_MOTION_DOT = .90111E-3
MEAN_MOTION_DDOT = 0

CCSDS_OMM_VERS = 2.0
CREATION_DATE  = 
ORIGINATOR     = 

OBJECT_NAME    = STARLINK-35687
OBJECT_ID      = 2025-265J
CENTER_NAME    = EARTH
REF_FRAME      = TEME
TIME_SYSTEM    = UTC
MEAN_ELEMENT_THEORY = SGP/SGP4

EPOCH          = 2025-12-11T04:00:01.998720
MEAN_MOTION    = 15.49031222
ECCENTRICITY   = .0001716
INCLINATION    = 42.9998
RA_OF_ASC_NODE = 63.1836
ARG_OF_PERICENTER = 263.3159
MEAN_ANOMALY   = 96.4511

EPHEMERIS_TYPE = 0
CLASSIFICATION_TYPE = U
NORAD_CAT_ID   = 66524
ELEMENT_SET_NO = 999
REV_AT_EPOCH   = 474
BSTAR          = -.41748E-1
MEAN_MOTION_DOT = -.2062654E-1
MEAN_MOTION_DDOT = 0

CCSDS_OMM_VERS = 2.0
CREATION_DATE  = 
ORIGINATOR     = 

OBJECT_NAME    = STARLINK-35975
OBJECT_ID      = 2025-265K
CENTER_NAME    = EARTH
REF_FRAME      = TEME
TIME_SYSTEM    = UTC
MEAN_ELEMENT_THEORY = SGP/SGP4

EPOCH          = 2025-12-11T04:00:01.998720
MEAN_MOTION    = 15.50608831
ECCENTRICITY   = .0001535
INCLINATION    = 42.9999
RA_OF_ASC_NODE = 63.1772
ARG_OF_PERICENTER = 263.1339
MEAN_ANOMALY   = 99.5180

EPHEMERIS_TYPE = 0
CLASSIFICATION_TYPE = U
NORAD_CAT_ID   = 66525
ELEMENT_SET_NO = 999
REV_AT_EPOCH   = 474
BSTAR          = -.13656E-2
MEAN_MOTION_DOT = -.79731E-3
MEAN_MOTION_DDOT = 0

CCSDS_OMM_VERS = 2.0
CREATION_DATE  = 
ORIGINATOR     = 

OBJECT_NAME    = STARLINK-35932
OBJECT_ID      = 2025-265L
CENTER_NAME    = EARTH
REF_FRAME      = TEME
TIME_SYSTEM    = UTC
MEAN_ELEMENT_THEORY = SGP/SGP4

EPOCH          = 2025-12-11T04:00:01.998720
MEAN_MOTION    = 15.50596127
ECCENTRICITY   = .00016
INCLINATION    = 43.0000
RA_OF_ASC_NODE = 63.1725
ARG_OF_PERICENTER = 261.4030
MEAN_ANOMALY   = 103.1660

EPHEMERIS_TYPE = 0
CLASSIFICATION_TYPE = U
NORAD_CAT_ID   = 66526
ELEMENT_SET_NO = 999
REV_AT_EPOCH   = 463
BSTAR          = -.10188E-2
MEAN_MOTION_DOT = -.59694E-3
MEAN_MOTION_DDOT = 0

CCSDS_OMM_VERS = 2.0
CREATION_DATE  = 
ORIGINATOR     = 

OBJECT_NAME    = STARLINK-35935
OBJECT_ID      = 2025-265M
CENTER_NAME    = EARTH
REF_FRAME      = TEME
TIME_SYSTEM    = UTC
MEAN_ELEMENT_THEORY = SGP/SGP4

EPOCH          = 2025-12-11T04:00:01.998720
MEAN_MOTION    = 15.50569310
ECCENTRICITY   = .0001549
INCLINATION    = 43.0000
RA_OF_ASC_NODE = 63.1676
ARG_OF_PERICENTER = 258.0443
MEAN_ANOMALY   = 108.4469

EPHEMERIS_TYPE = 0
CLASSIFICATION_TYPE = U
NORAD_CAT_ID   = 66527
ELEMENT_SET_NO = 999
REV_AT_EPOCH   = 474
BSTAR          = .63658E-4
MEAN_MOTION_DOT = .3393E-4
MEAN_MOTION_DDOT = 0

CCSDS_OMM_VERS = 2.0
CREATION_DATE  = 
ORIGINATOR     = 

OBJECT_NAME    = STARLINK-35928
OBJECT_ID      = 2025-265N
CENTER_NAME    = EARTH
REF_FRAME      = TEME
TIME_SYSTEM    = UTC
MEAN_ELEMENT_THEORY = SGP/SGP4

EPOCH          = 2025-12-11T04:00:01.998720
MEAN_MOTION    = 15.50626579
ECCENTRICITY   = .0001583
INCLINATION    = 43.0002
RA_OF_ASC_NODE = 63.1636
ARG_OF_PERICENTER = 264.5647
MEAN_ANOMALY   = 103.8341

EPHEMERIS_TYPE = 0
CLASSIFICATION_TYPE = U
NORAD_CAT_ID   = 66528
ELEMENT_SET_NO = 999
REV_AT_EPOCH   = 474
BSTAR          = -.20548E-2
MEAN_MOTION_DOT = -.11927E-2
MEAN_MOTION_DDOT = 0

CCSDS_OMM_VERS = 2.0
CREATION_DATE  = 
ORIGINATOR     = 

OBJECT_NAME    = STARLINK-35933
OBJECT_ID      = 2025-265P
CENTER_NAME    = EARTH
REF_FRAME      = TEME
TIME_SYSTEM    = UTC
MEAN_ELEMENT_THEORY = SGP/SGP4

EPOCH          = 2025-12-11T04:00:01.998720
MEAN_MOTION    = 15.49399693
ECCENTRICITY   = .0001796
INCLINATION    = 42.9998
RA_OF_ASC_NODE = 63.1587
ARG_OF_PERICENTER = 268.3485
MEAN_ANOMALY   = 101.4033

EPHEMERIS_TYPE = 0
CLASSIFICATION_TYPE = U
NORAD_CAT_ID   = 66529
ELEMENT_SET_NO = 999
REV_AT_EPOCH   = 474
BSTAR          = -.41657E-1
MEAN_MOTION_DOT = -.208283E-1
MEAN_MOTION_DDOT = 0

CCSDS_OMM_VERS = 2.0
CREATION_DATE  = 
ORIGINATOR     = 

OBJECT_NAME    = STARLINK-35961
OBJECT_ID      = 2025-265Q
CENTER_NAME    = EARTH
REF_FRAME      = TEME
TIME_SYSTEM    = UTC
MEAN_ELEMENT_THEORY = SGP/SGP4

EPOCH          = 2025-12-11T04:00:01.998720
MEAN_MOTION    = 15.50645644
ECCENTRICITY   = .0001683
INCLINATION    = 43.0000
RA_OF_ASC_NODE = 63.1528
ARG_OF_PERICENTER = 268.1518
MEAN_ANOMALY   = 104.0705

EPHEMERIS_TYPE = 0
CLASSIFICATION_TYPE = U
NORAD_CAT_ID   = 66530
ELEMENT_SET_NO = 999
REV_AT_EPOCH   = 474
BSTAR          = -.32488E-2
MEAN_MOTION_DOT = -.186906E-2
MEAN_MOTION_DDOT = 0

CCSDS_OMM_VERS = 2.0
CREATION_DATE  = 
ORIGINATOR     = 

OBJECT_NAME    = STARLINK-35960
OBJECT_ID      = 2025-265R
CENTER_NAME    = EARTH
REF_FRAME      = TEME
TIME_SYSTEM    = UTC
MEAN_ELEMENT_THEORY = SGP/SGP4

EPOCH          = 2025-12-11T04:00:01.998720
MEAN_MOTION    = 15.50553642
ECCENTRICITY   = .0001576
INCLINATION    = 43.0000
RA_OF_ASC_NODE = 63.1477
ARG_OF_PERICENTER = 259.8949
MEAN_ANOMALY   = 114.2689

EPHEMERIS_TYPE = 0
CLASSIFICATION_TYPE = U
NORAD_CAT_ID   = 66531
ELEMENT_SET_NO = 999
REV_AT_EPOCH   = 474
BSTAR          = .59471E-3
MEAN_MOTION_DOT = .3467E-3
MEAN_MOTION_DDOT = 0

CCSDS_OMM_VERS = 2.0
CREATION_DATE  = 
ORIGINATOR     = 

OBJECT_NAME    = STARLINK-35914
OBJECT_ID      = 2025-265S
CENTER_NAME    = EARTH
REF_FRAME      = TEME
TIME_SYSTEM    = UTC
MEAN_ELEMENT_THEORY = SGP/SGP4

EPOCH          = 2025-12-11T04:00:01.998720
MEAN_MOTION    = 15.50566497
ECCENTRICITY   = .0001578
INCLINATION    = 42.9998
RA_OF_ASC_NODE = 63.1435
ARG_OF_PERICENTER = 260.7201
MEAN_ANOMALY   = 115.3567

EPHEMERIS_TYPE = 0
CLASSIFICATION_TYPE = U
NORAD_CAT_ID   = 66532
ELEMENT_SET_NO = 999
REV_AT_EPOCH   = 474
BSTAR          = .79213E-4
MEAN_MOTION_DOT = .4306E-4
MEAN_MOTION_DDOT = 0

CCSDS_OMM_VERS = 2.0
CREATION_DATE  = 
ORIGINATOR     = 

OBJECT_NAME    = STARLINK-35707
OBJECT_ID      = 2025-265T
CENTER_NAME    = EARTH
REF_FRAME      = TEME
TIME_SYSTEM    = UTC
MEAN_ELEMENT_THEORY = SGP/SGP4

EPOCH          = 2025-12-11T04:00:01.998720
MEAN_MOTION    = 15.50597118
ECCENTRICITY   = .000156
INCLINATION    = 42.9999
RA_OF_ASC_NODE = 63.1383
ARG_OF_PERICENTER = 262.0083
MEAN_ANOMALY   = 115.9814

EPHEMERIS_TYPE = 0
CLASSIFICATION_TYPE = U
NORAD_CAT_ID   = 66533
ELEMENT_SET_NO = 999
REV_AT_EPOCH   = 474
BSTAR          = -.11384E-2
MEAN_MOTION_DOT = -.66601E-3
MEAN_MOTION_DDOT = 0

